{
    "links": {
        "self": "http://www.neowsapp.com/rest/v1/neo/3781721?api_key=iIulBulltgU6a56xZRHN4H3l9WmuAYTsLGpBGhQ2"
    },
    "id": "3781721",
    "neo_reference_id": "3781721",
    "name": "(2017 SA12)",
    "designation": "2017 SA12",
    "nasa_jpl_url": "http://ssd.jpl.nasa.gov/sbdb.cgi?sstr=3781721",
    "absolute_magnitude_h": 22.1,
    "estimated_diameter": {
        "kilometers": {
            "estimated_diameter_min": 0.1010543415,
            "estimated_diameter_max": 0.2259643771
        },
        "meters": {
            "estimated_diameter_min": 101.054341542,
            "estimated_diameter_max": 225.9643771094
        },
        "miles": {
            "estimated_diameter_min": 0.0627922373,
            "estimated_diameter_max": 0.140407711
        },
        "feet": {
            "estimated_diameter_min": 331.5431259047,
            "estimated_diameter_max": 741.3529669956
        }
    },
    "is_potentially_hazardous_asteroid": false,
    "close_approach_data": [
        {
            "close_approach_date": "2017-06-22",
            "close_approach_date_full": "2017-Jun-22 06:26",
            "epoch_date_close_approach": 1498112760000,
            "relative_velocity": {
                "kilometers_per_second": "11.9607824987",
                "kilometers_per_hour": "43058.8169954752",
                "miles_per_hour": "26755.0743714384"
            },
            "miss_distance": {
                "astronomical": "0.4286032313",
                "lunar": "166.7266569757",
                "kilometers": "64118130.477597331",
                "miles": "39841158.8196959278"
            },
            "orbiting_body": "Earth"
        },
        {
            "close_approach_date": "2017-09-13",
            "close_approach_date_full": "2017-Sep-13 04:51",
            "epoch_date_close_approach": 1505278260000,
            "relative_velocity": {
                "kilometers_per_second": "13.3992554426",
                "kilometers_per_hour": "48237.3195934324",
                "miles_per_hour": "29972.7944995969"
            },
            "miss_distance": {
                "astronomical": "0.3407998182",
                "lunar": "132.5711292798",
                "kilometers": "50982926.899107234",
                "miles": "31679321.7854344692"
            },
            "orbiting_body": "Earth"
        }
    ],
    "orbital_data": {
        "orbit_id": "2",
        "orbit_determination_date": "2017-09-29 06:51:58",
        "first_observation_date": "2017-09-21",
        "last_observation_date": "2017-09-28",
        "data_arc_in_days": 7,
        "observations_used": 19,
        "orbit_uncertainty": "9",
        "minimum_orbit_intersection": ".104503",
        "jupiter_tisserand_invariant": "4.835",
        "epoch_osculation": "2458018.5",
        "eccentricity": ".4097069555884516",
        "semi_major_axis": "1.300662451533201",
        "inclination": "23.80988805576635",
        "ascending_node_longitude": "191.926507218042",
        "orbital_period": "541.807897636856",
        "perihelion_distance": ".7677719982673216",
        "perihelion_argument": "54.14555531211171",
        "aphelion_distance": "1.833552904799082",
        "perihelion_time": "2457913.222025749565",
        "mean_anomaly": "69.9511227050421",
        "mean_motion": ".6644421418923063",
        "equinox": "J2000",
        "orbit_class": {
            "orbit_class_type": "APO",
            "orbit_class_description": "Near-Earth asteroid orbits which cross the Earth’s orbit similar to that of 1862 Apollo",
            "orbit_class_range": "a (semi-major axis) > 1.0 AU; q (perihelion) < 1.017 AU"
        }
    },
    "is_sentry_object": false
}